{"fetched_at":"2026-07-17T17:37:51.795Z","source":"https://celestrak.org/NORAD/elements/gp.php?GROUP=kuiper&FORMAT=JSON","constellation":"kuiper","records":[{"OBJECT_NAME":"KUIPER-00265","OBJECT_ID":"2025-301AC","EPOCH":"2026-07-17T03:01:19.390368","CLASSIFICATION_TYPE":"U","MEAN_MOTION":14.79934512,"ECCENTRICITY":0.00003513,"INCLINATION":51.9021,"RA_OF_ASC_NODE":233.2775,"ARG_OF_PERICENTER":86.8279,"MEAN_ANOMALY":273.2723,"EPHEMERIS_TYPE":0,"NORAD_CAT_ID":67159,"ELEMENT_SET_NO":999,"REV_AT_EPOCH":3265,"BSTAR":0.00016989519,"MEAN_MOTION_DOT":0.00001074,"MEAN_MOTION_DDOT":0},{"OBJECT_NAME":"KUIPER-00159","OBJECT_ID":"2026-030A","EPOCH":"2026-07-17T06:00:02.000160","CLASSIFICATION_TYPE":"U","MEAN_MOTION":15.2020305,"ECCENTRICITY":0.00059606,"INCLINATION":51.8915,"RA_OF_ASC_NODE":313.3938,"ARG_OF_PERICENTER":132.6614,"MEAN_ANOMALY":280.4717,"EPHEMERIS_TYPE":0,"NORAD_CAT_ID":67764,"ELEMENT_SET_NO":999,"REV_AT_EPOCH":576,"BSTAR":-0.052587714,"MEAN_MOTION_DOT":-0.01058568,"MEAN_MOTION_DDOT":0},{"OBJECT_NAME":"KUIPER-00160","OBJECT_ID":"2026-030B","EPOCH":"2026-07-16T16:08:53.795904","CLASSIFICATION_TYPE":"U","MEAN_MOTION":15.37316687,"ECCENTRICITY":0.00059097,"INCLINATION":51.8823,"RA_OF_ASC_NODE":315.6488,"ARG_OF_PERICENTER":147.2169,"MEAN_ANOMALY":212.9186,"EPHEMERIS_TYPE":0,"NORAD_CAT_ID":67765,"ELEMENT_SET_NO":999,"REV_AT_EPOCH":2493,"BSTAR":0.00037374778,"MEAN_MOTION_DOT":0.00013519,"MEAN_MOTION_DDOT":0},{"OBJECT_NAME":"KUIPER-00177","OBJECT_ID":"2026-030C","EPOCH":"2026-07-16T22:30:21.218112","CLASSIFICATION_TYPE":"U","MEAN_MOTION":14.79934941,"ECCENTRICITY":0.00006452,"INCLINATION":51.9018,"RA_OF_ASC_NODE":1.5893,"ARG_OF_PERICENTER":129.941,"MEAN_ANOMALY":230.1609,"EPHEMERIS_TYPE":0,"NORAD_CAT_ID":67766,"ELEMENT_SET_NO":999,"REV_AT_EPOCH":2431,"BSTAR":0.00022832272,"MEAN_MOTION_DOT":0.0000152,"MEAN_MOTION_DDOT":0},{"OBJECT_NAME":"KUIPER-00178","OBJECT_ID":"2026-030D","EPOCH":"2026-07-16T20:04:29.019072","CLASSIFICATION_TYPE":"U","MEAN_MOTION":14.79932295,"ECCENTRICITY":0.00007038,"INCLINATION":51.902,"RA_OF_ASC_NODE":2.0193,"ARG_OF_PERICENTER":137.1684,"MEAN_ANOMALY":222.9333,"EPHEMERIS_TYPE":0,"NORAD_CAT_ID":67767,"ELEMENT_SET_NO":999,"REV_AT_EPOCH":2430,"BSTAR":0.00023989982,"MEAN_MOTION_DOT":0.00001608,"MEAN_MOTION_DDOT":0},{"OBJECT_NAME":"KUIPER-00180","OBJECT_ID":"2026-030E","EPOCH":"2026-07-16T18:35:00.514464","CLASSIFICATION_TYPE":"U","MEAN_MOTION":14.79936212,"ECCENTRICITY":0.00004579,"INCLINATION":51.8996,"RA_OF_ASC_NODE":357.2976,"ARG_OF_PERICENTER":97.0391,"MEAN_ANOMALY":263.0623,"EPHEMERIS_TYPE":0,"NORAD_CAT_ID":67768,"ELEMENT_SET_NO":999,"REV_AT_EPOCH":2436,"BSTAR":0.00022978866,"MEAN_MOTION_DOT":0.00001531,"MEAN_MOTION_DDOT":0},{"OBJECT_NAME":"KUIPER-00197","OBJECT_ID":"2026-030F","EPOCH":"2026-07-16T19:06:04.295520","CLASSIFICATION_TYPE":"U","MEAN_MOTION":14.79936546,"ECCENTRICITY":0.00004593,"INCLINATION":51.9009,"RA_OF_ASC_NODE":337.216,"ARG_OF_PERICENTER":173.5983,"MEAN_ANOMALY":186.4986,"EPHEMERIS_TYPE":0,"NORAD_CAT_ID":67769,"ELEMENT_SET_NO":999,"REV_AT_EPOCH":2464,"BSTAR":0.00024635196,"MEAN_MOTION_DOT":0.00001658,"MEAN_MOTION_DDOT":0},{"OBJECT_NAME":"KUIPER-00198","OBJECT_ID":"2026-030G","EPOCH":"2026-07-16T17:58:02.249760","CLASSIFICATION_TYPE":"U","MEAN_MOTION":14.79928318,"ECCENTRICITY":0.00004471,"INCLINATION":51.9005,"RA_OF_ASC_NODE":349.907,"ARG_OF_PERICENTER":107.0299,"MEAN_ANOMALY":253.0712,"EPHEMERIS_TYPE":0,"NORAD_CAT_ID":67770,"ELEMENT_SET_NO":999,"REV_AT_EPOCH":2446,"BSTAR":0.000076782943,"MEAN_MOTION_DOT":0.00000364,"MEAN_MOTION_DDOT":0},{"OBJECT_NAME":"KUIPER-00199","OBJECT_ID":"2026-030H","EPOCH":"2026-07-16T16:43:58.892160","CLASSIFICATION_TYPE":"U","MEAN_MOTION":15.37031987,"ECCENTRICITY":0.00102416,"INCLINATION":51.8817,"RA_OF_ASC_NODE":317.2742,"ARG_OF_PERICENTER":157.8403,"MEAN_ANOMALY":202.3028,"EPHEMERIS_TYPE":0,"NORAD_CAT_ID":67771,"ELEMENT_SET_NO":999,"REV_AT_EPOCH":2491,"BSTAR":0.00039425732,"MEAN_MOTION_DOT":0.00014164,"MEAN_MOTION_DDOT":0},{"OBJECT_NAME":"KUIPER-00200","OBJECT_ID":"2026-030J","EPOCH":"2026-07-16T15:07:01.981920","CLASSIFICATION_TYPE":"U","MEAN_MOTION":14.79883155,"ECCENTRICITY":0.00013442,"INCLINATION":51.8995,"RA_OF_ASC_NODE":335.4763,"ARG_OF_PERICENTER":85.0052,"MEAN_ANOMALY":275.1064,"EPHEMERIS_TYPE":0,"NORAD_CAT_ID":67772,"ELEMENT_SET_NO":999,"REV_AT_EPOCH":2465,"BSTAR":0.00024687048,"MEAN_MOTION_DOT":0.00001659,"MEAN_MOTION_DDOT":0},{"OBJECT_NAME":"KUIPER-00203","OBJECT_ID":"2026-030K","EPOCH":"2026-07-16T20:45:21.331872","CLASSIFICATION_TYPE":"U","MEAN_MOTION":14.79931504,"ECCENTRICITY":0.00005803,"INCLINATION":51.9079,"RA_OF_ASC_NODE":6.9575,"ARG_OF_PERICENTER":124.8791,"MEAN_ANOMALY":235.2226,"EPHEMERIS_TYPE":0,"NORAD_CAT_ID":67773,"ELEMENT_SET_NO":999,"REV_AT_EPOCH":2423,"BSTAR":0.000064668134,"MEAN_MOTION_DOT":0.00000272,"MEAN_MOTION_DDOT":0},{"OBJECT_NAME":"KUIPER-00205","OBJECT_ID":"2026-030L","EPOCH":"2026-07-16T21:39:33.181632","CLASSIFICATION_TYPE":"U","MEAN_MOTION":14.79930984,"ECCENTRICITY":0.00009044,"INCLINATION":51.901,"RA_OF_ASC_NODE":331.72,"ARG_OF_PERICENTER":131.714,"MEAN_ANOMALY":228.39,"EPHEMERIS_TYPE":0,"NORAD_CAT_ID":67774,"ELEMENT_SET_NO":999,"REV_AT_EPOCH":2473,"BSTAR":0.0001988759,"MEAN_MOTION_DOT":0.00001295,"MEAN_MOTION_DDOT":0},{"OBJECT_NAME":"KUIPER-00208","OBJECT_ID":"2026-030M","EPOCH":"2026-07-17T06:00:02.000160","CLASSIFICATION_TYPE":"U","MEAN_MOTION":14.78983736,"ECCENTRICITY":0.00008559,"INCLINATION":51.8991,"RA_OF_ASC_NODE":357.6889,"ARG_OF_PERICENTER":221.1093,"MEAN_ANOMALY":171.9761,"EPHEMERIS_TYPE":0,"NORAD_CAT_ID":67775,"ELEMENT_SET_NO":999,"REV_AT_EPOCH":551,"BSTAR":0.014480063,"MEAN_MOTION_DOT":0.00109485,"MEAN_MOTION_DDOT":0},{"OBJECT_NAME":"KUIPER-00209","OBJECT_ID":"2026-030N","EPOCH":"2026-07-16T21:00:52.715232","CLASSIFICATION_TYPE":"U","MEAN_MOTION":14.79939931,"ECCENTRICITY":0.00005855,"INCLINATION":51.9009,"RA_OF_ASC_NODE":356.9406,"ARG_OF_PERICENTER":127.1195,"MEAN_ANOMALY":232.9821,"EPHEMERIS_TYPE":0,"NORAD_CAT_ID":67776,"ELEMENT_SET_NO":999,"REV_AT_EPOCH":2437,"BSTAR":0.00025189731,"MEAN_MOTION_DOT":0.000017,"MEAN_MOTION_DDOT":0},{"OBJECT_NAME":"KUIPER-00213","OBJECT_ID":"2026-030P","EPOCH":"2026-07-16T21:53:23.542656","CLASSIFICATION_TYPE":"U","MEAN_MOTION":14.79929651,"ECCENTRICITY":0.00006544,"INCLINATION":51.898,"RA_OF_ASC_NODE":354.261,"ARG_OF_PERICENTER":98.277,"MEAN_ANOMALY":261.8267,"EPHEMERIS_TYPE":0,"NORAD_CAT_ID":67777,"ELEMENT_SET_NO":999,"REV_AT_EPOCH":2441,"BSTAR":0.000027664439,"MEAN_MOTION_DOT":-1e-7,"MEAN_MOTION_DDOT":0},{"OBJECT_NAME":"KUIPER-00214","OBJECT_ID":"2026-030Q","EPOCH":"2026-07-16T22:45:53.880192","CLASSIFICATION_TYPE":"U","MEAN_MOTION":14.79935819,"ECCENTRICITY":0.00007692,"INCLINATION":51.9013,"RA_OF_ASC_NODE":351.6088,"ARG_OF_PERICENTER":148.4044,"MEAN_ANOMALY":211.6965,"EPHEMERIS_TYPE":0,"NORAD_CAT_ID":67778,"ELEMENT_SET_NO":999,"REV_AT_EPOCH":2445,"BSTAR":0.00025231862,"MEAN_MOTION_DOT":0.00001703,"MEAN_MOTION_DDOT":0}]}
