KUIPER-00265            
1 67159U 25301AC  26198.12591887  .00001074  00000+0  16990-3 0  9995
2 67159  51.9021 233.2775 0000351  86.8279 273.2723 14.79934512 32653
KUIPER-00159            
1 67764U 26030A   26198.25002315 -.01058568  00000+0 -52588-1 0  9998
2 67764  51.8915 313.3938 0005960 132.6614 280.4717 15.20203050  5769
KUIPER-00160            
1 67765U 26030B   26197.67284486  .00013519  00000+0  37375-3 0  9998
2 67765  51.8823 315.6488 0005909 147.2169 212.9186 15.37316687 24932
KUIPER-00177            
1 67766U 26030C   26197.93774558  .00001520  00000+0  22832-3 0  9993
2 67766  51.9018   1.5893 0000645 129.9410 230.1609 14.79934941 24317
KUIPER-00178            
1 67767U 26030D   26197.83644698  .00001608  00000+0  23990-3 0  9997
2 67767  51.9020   2.0193 0000703 137.1684 222.9333 14.79932295 24301
KUIPER-00180            
1 67768U 26030E   26197.77431151  .00001531  00000+0  22979-3 0  9990
2 67768  51.8996 357.2976 0000457  97.0391 263.0623 14.79936212 24369
KUIPER-00197            
1 67769U 26030F   26197.79588305  .00001658  00000+0  24635-3 0  9998
2 67769  51.9009 337.2160 0000459 173.5983 186.4986 14.79936546 24649
KUIPER-00198            
1 67770U 26030G   26197.74863715  .00000364  00000+0  76783-4 0  9991
2 67770  51.9005 349.9070 0000447 107.0299 253.0712 14.79928318 24462
KUIPER-00199            
1 67771U 26030H   26197.69720940  .00014164  00000+0  39426-3 0  9993
2 67771  51.8817 317.2742 0010241 157.8403 202.3028 15.37031987 24919
KUIPER-00200            
1 67772U 26030J   26197.62988405  .00001659  00000+0  24687-3 0  9997
2 67772  51.8995 335.4763 0001344  85.0052 275.1064 14.79883155 24654
KUIPER-00203            
1 67773U 26030K   26197.86483023  .00000272  00000+0  64668-4 0  9994
2 67773  51.9079   6.9575 0000580 124.8791 235.2226 14.79931504 24236
KUIPER-00205            
1 67774U 26030L   26197.90246738  .00001295  00000+0  19888-3 0  9999
2 67774  51.9010 331.7200 0000904 131.7140 228.3900 14.79930984 24739
KUIPER-00208            
1 67775U 26030M   26198.25002315  .00109485  00000+0  14480-1 0  9991
2 67775  51.8991 357.6889 0000855 221.1093 171.9761 14.78983736  5518
KUIPER-00209            
1 67776U 26030N   26197.87561013  .00001700  00000+0  25190-3 0  9997
2 67776  51.9009 356.9406 0000585 127.1195 232.9821 14.79939931 24374
KUIPER-00213            
1 67777U 26030P   26197.91207804 -.00000010  00000+0  27664-4 0  9991
2 67777  51.8980 354.2610 0000654  98.2770 261.8267 14.79929651 24412
KUIPER-00214            
1 67778U 26030Q   26197.94854028  .00001703  00000+0  25232-3 0  9998
2 67778  51.9013 351.6088 0000769 148.4044 211.6965 14.79935819 24455
